SHIYAN-24C 01           
1 58650U 23206A   26068.89348774  .00002076  00000+0  18089-3 0  9992
2 58650  97.3976  41.7846 0003675 132.3262 227.8273 14.97903598120444
STARLINK-33904          
1 63887U 25094Z   26068.86779939  .00005810  00000+0  49417-3 0  9993
2 63887  70.0012 233.8528 0003120 268.9324  91.1478 14.98343675 47231
